<?xml version="1.0" encoding="utf-8" ?>
<kml xmlns="http://www.opengis.net/kml/2.2">
<Document id="root_doc">
<Schema name="SectoresHidraulicos" id="SectoresHidraulicos">
	<SimpleField name="id" type="string"></SimpleField>
	<SimpleField name="descriptio" type="string"></SimpleField>
	<SimpleField name="timestamp" type="string"></SimpleField>
	<SimpleField name="begin" type="string"></SimpleField>
	<SimpleField name="end" type="string"></SimpleField>
	<SimpleField name="altitudeMo" type="string"></SimpleField>
	<SimpleField name="tessellate" type="int"></SimpleField>
	<SimpleField name="extrude" type="int"></SimpleField>
	<SimpleField name="visibility" type="int"></SimpleField>
	<SimpleField name="drawOrder" type="float"></SimpleField>
	<SimpleField name="icon" type="string"></SimpleField>
	<SimpleField name="snippet" type="string"></SimpleField>
</Schema>
<Folder><name>SectoresHidraulicos</name>
  <Placemark id="SectoresHidraulicos.1">
	<name>Juan Ilbay</name>
	<Style><LineStyle><color>ff0000ff</color></LineStyle><PolyStyle><fill>0</fill></PolyStyle></Style>
	<ExtendedData><SchemaData schemaUrl="#SectoresHidraulicos">
		<SimpleData name="id">ID_00000</SimpleData>
		<SimpleData name="descriptio">NombreSector: CHILLOGALLO ALTO #1
Shape.STArea(): 1224757.147858
NombreSubsector: Chillogallo Alto #1 Sub.2(La Bretaña
CodigoSector: 050106
CodigoSubsector: 05010602</SimpleData>
		<SimpleData name="timestamp">NaT</SimpleData>
		<SimpleData name="begin">NaT</SimpleData>
		<SimpleData name="end">NaT</SimpleData>
		<SimpleData name="tessellate">-1</SimpleData>
		<SimpleData name="extrude">0</SimpleData>
		<SimpleData name="visibility">-1</SimpleData>
	</SchemaData></ExtendedData>
      <MultiGeometry><Polygon><outerBoundaryIs><LinearRing><coordinates>-78.537941785,-0.30953020499993 -78.537936295,-0.309827746999929 -78.538408416,-0.310461471999929 -78.538113347,-0.312738916999933 -78.5382522479999,-0.313154167999926 -78.538032022,-0.315752869999926 -78.5372777489999,-0.316999833999944 -78.536744961,-0.318053046999978 -78.5365247,-0.318647165999948 -78.536470047,-0.318874534999963 -78.538519752,-0.318644766999967 -78.538921995,-0.318592270999943 -78.539069253,-0.318575954999972 -78.540762462,-0.318388354999968 -78.541757049,-0.318257265999932 -78.542454935,-0.318196812999929 -78.54552648,-0.317968915999927 -78.545581748,-0.317903729999955 -78.546839108,-0.315957620999939 -78.5484948119999,-0.315550083999938 -78.548547559,-0.315537104999976 -78.5486085489999,-0.315513135999936 -78.54864666,-0.315493860999936 -78.548622608,-0.31535882299994 -78.5485392589999,-0.314975319999974 -78.548531581,-0.314943272999926 -78.548398144,-0.314414609999972 -78.548266847,-0.313894429999948 -78.548183547,-0.313570154999979 -78.548157434,-0.313462534999928 -78.548090886,-0.313248010999928 -78.5480774439999,-0.313211987999978 -78.548026007,-0.313091491999956 -78.547981899,-0.312993799999958 -78.5479160469999,-0.31289912099993 -78.5478734869999,-0.312837932999969 -78.547614454,-0.312455023999973 -78.5472798489999,-0.311960409999927 -78.547074632,-0.311657688999958 -78.547046973,-0.311617479999938 -78.5467513099999,-0.31119431999997 -78.546436107,-0.310743187999947 -78.5462623769999,-0.310494541999958 -78.546125843,-0.310297650999928 -78.546000084,-0.310114573999954 -78.545734325,-0.309724505999952 -78.545002847,-0.308650891999946 -78.544897966,-0.308503066999947 -78.544593737,-0.308086332999949 -78.544178399,-0.307525302999977 -78.543996738,-0.307279918999939 -78.5437263539999,-0.306801223999969 -78.543669216,-0.30669034899995 -78.543598636,-0.30652809999998 -78.5433663279999,-0.305951980999964 -78.543195721,-0.305528885999934 -78.543072052,-0.305231470999956 -78.542989744,-0.305033529999946 -78.543024902,-0.304829476999942 -78.542910535,-0.304856704999963 -78.542772065,-0.304889670999955 -78.542654334,-0.304913495999927 -78.542704218,-0.305163154999946 -78.5420650949999,-0.305300969999962 -78.542130597,-0.305619303999947 -78.5421411569999,-0.305670618999955 -78.5422649819999,-0.306272386999979 -78.542328266,-0.306578783999953 -78.5423537349999,-0.306701761999932 -78.54236129,-0.306740702999946 -78.5424004829999,-0.306940546999954 -78.5424369689999,-0.307144305999941 -78.542407055,-0.307153095999979 -78.542367509,-0.307161583999971 -78.5423299399999,-0.307169616999943 -78.542296274,-0.307176804999926 -78.5422222569999,-0.307192372999964 -78.542125047,-0.30721347399998 -78.542049148,-0.307229983999946 -78.541949551,-0.307251933999964 -78.541861825,-0.307271256999968 -78.541774097,-0.307290578999925 -78.541686372,-0.307309903999965 -78.541590932,-0.30731906099993 -78.5416038989999,-0.307429213999967 -78.540908024,-0.307590490999928 -78.5405989239999,-0.307656832999953 -78.540585845,-0.307540868999979 -78.540141357,-0.30763587399997 -78.539962998,-0.307674 -78.539861679,-0.307659276999971 -78.539785299,-0.307682009999951 -78.539756795,-0.307538504999968 -78.53974656,-0.307488046999936 -78.539642828,-0.30752317799994 -78.539580792,-0.307051885999954 -78.538344503,-0.307199908999962 -78.537635297,-0.307416337999939 -78.537714716,-0.308793899999955 -78.5378229569999,-0.309016585999927 -78.537941785,-0.30953020499993</coordinates></LinearRing></outerBoundaryIs></Polygon></MultiGeometry>
  </Placemark>
  <Placemark id="SectoresHidraulicos.2">
	<name>Juan Ilbay</name>
	<Style><LineStyle><color>ff0000ff</color></LineStyle><PolyStyle><fill>0</fill></PolyStyle></Style>
	<ExtendedData><SchemaData schemaUrl="#SectoresHidraulicos">
		<SimpleData name="id">ID_00001</SimpleData>
		<SimpleData name="descriptio">NombreSector: MIRADOR DE CHILLOGALLO
Shape.STArea(): 120075.822773
NombreSubsector: MIrador de Chillogallo Colinas del Sur
CodigoSector: 050116
CodigoSubsector: 05011601</SimpleData>
		<SimpleData name="timestamp">NaT</SimpleData>
		<SimpleData name="begin">NaT</SimpleData>
		<SimpleData name="end">NaT</SimpleData>
		<SimpleData name="tessellate">-1</SimpleData>
		<SimpleData name="extrude">0</SimpleData>
		<SimpleData name="visibility">-1</SimpleData>
	</SchemaData></ExtendedData>
      <MultiGeometry><Polygon><outerBoundaryIs><LinearRing><coordinates>-78.576463224,-0.289798644999962 -78.576532175,-0.29008461799998 -78.57660638,-0.290660862999971 -78.576632423,-0.290899488999969 -78.5766960299999,-0.291482298999938 -78.576356323,-0.291636184999959 -78.5762963829999,-0.291768273999935 -78.576305045,-0.291913785999952 -78.5765263659999,-0.292085609999958 -78.576820961,-0.292281727999978 -78.577054048,-0.292210221999937 -78.57714385,-0.292244340999957 -78.57707756,-0.292449612999974 -78.576814939,-0.292799561999971 -78.576260825,-0.293072320999954 -78.577121564,-0.294051980999939 -78.577619206,-0.293720587999928 -78.578113281,-0.293308941999953 -78.5789752319999,-0.294030343999964 -78.579503734,-0.293282013999942 -78.578743953,-0.292783493999934 -78.578700086,-0.292705911999974 -78.578600034,-0.292563451999968 -78.578361088,-0.29239075199996 -78.578565767,-0.292008576999933 -78.579185131,-0.291576574999965 -78.5794914689999,-0.291453212999954 -78.5794779679999,-0.291092687999935 -78.579641882,-0.291001797999968 -78.5795444729999,-0.29080567799997 -78.579470826,-0.290542590999962 -78.579043279,-0.290379814999937 -78.5785405079999,-0.290041705999954 -78.5782233309999,-0.289859000999968 -78.577930924,-0.289752686999975 -78.577660485,-0.289535327999943 -78.577019144,-0.289597737999941 -78.576463224,-0.289798644999962</coordinates></LinearRing></outerBoundaryIs></Polygon></MultiGeometry>
  </Placemark>
  <Placemark id="SectoresHidraulicos.3">
	<name>Juan Ilbay</name>
	<Style><LineStyle><color>ff0000ff</color></LineStyle><PolyStyle><fill>0</fill></PolyStyle></Style>
	<ExtendedData><SchemaData schemaUrl="#SectoresHidraulicos">
		<SimpleData name="id">ID_00002</SimpleData>
		<SimpleData name="descriptio">NombreSector: MIRADOR DE CHILLOGALLO
Shape.STArea(): 145415.133861
NombreSubsector: Mirador de Chillogallo La Estancia
CodigoSector: 050116
CodigoSubsector: 05011602</SimpleData>
		<SimpleData name="timestamp">NaT</SimpleData>
		<SimpleData name="begin">NaT</SimpleData>
		<SimpleData name="end">NaT</SimpleData>
		<SimpleData name="tessellate">-1</SimpleData>
		<SimpleData name="extrude">0</SimpleData>
		<SimpleData name="visibility">-1</SimpleData>
	</SchemaData></ExtendedData>
      <MultiGeometry><Polygon><outerBoundaryIs><LinearRing><coordinates>-78.573276102,-0.290495885999974 -78.5733383899999,-0.291252691999944 -78.573234873,-0.291287513999975 -78.5734736909999,-0.291867982999975 -78.5735671259999,-0.292034416999968 -78.5737751729999,-0.292405016999965 -78.5737398329999,-0.292417365999938 -78.574774807,-0.293914454999936 -78.5751347779999,-0.293757092999954 -78.576117585,-0.295012178999969 -78.576271912,-0.294891188999941 -78.5768229889999,-0.294250811999973 -78.577121564,-0.294051980999939 -78.576260825,-0.293072320999954 -78.576814939,-0.292799561999971 -78.57707756,-0.292449612999974 -78.57714385,-0.292244340999957 -78.577054048,-0.292210221999937 -78.576820961,-0.292281727999978 -78.5765263659999,-0.292085609999958 -78.576305045,-0.291913785999952 -78.5762963829999,-0.291768273999935 -78.576356323,-0.291636184999959 -78.5766960299999,-0.291482298999938 -78.576632423,-0.290899488999969 -78.57660638,-0.290660862999971 -78.576532175,-0.29008461799998 -78.576463224,-0.289798644999962 -78.5758980369999,-0.290047221999941 -78.57525774,-0.290064454999936 -78.57525477,-0.290064428999926 -78.575156486,-0.290060192999931 -78.575006689,-0.290064498999925 -78.5749225499999,-0.290166793999958 -78.574756809,-0.290203395999924 -78.5746698999999,-0.290239991999954 -78.574589297,-0.290281525999944 -78.5746015139999,-0.290307293999945 -78.574493236,-0.290324903999931 -78.574415608,-0.290375396999934 -78.5744133219999,-0.290376881999976 -78.574371229,-0.290285756999935 -78.574370755,-0.290284729999939 -78.574215118,-0.290349796999976 -78.574049869,-0.290470408999966 -78.573930839,-0.290428644999963 -78.573659003,-0.290464825999948 -78.573483461,-0.290479058999949 -78.573276102,-0.290495885999974</coordinates></LinearRing></outerBoundaryIs></Polygon></MultiGeometry>
  </Placemark>
  <Placemark id="SectoresHidraulicos.4">
	<name>Juan Ilbay</name>
	<Style><LineStyle><color>ff0000ff</color></LineStyle><PolyStyle><fill>0</fill></PolyStyle></Style>
	<ExtendedData><SchemaData schemaUrl="#SectoresHidraulicos">
		<SimpleData name="id">ID_00003</SimpleData>
		<SimpleData name="descriptio">NombreSector: MIRADOR DE CHILLOGALLO
Shape.STArea(): 259019.232577
NombreSubsector: Miradior de Chilllogallo Santa Clara 1
CodigoSector: 050116
CodigoSubsector: 05011603</SimpleData>
		<SimpleData name="timestamp">NaT</SimpleData>
		<SimpleData name="begin">NaT</SimpleData>
		<SimpleData name="end">NaT</SimpleData>
		<SimpleData name="tessellate">-1</SimpleData>
		<SimpleData name="extrude">0</SimpleData>
		<SimpleData name="visibility">-1</SimpleData>
	</SchemaData></ExtendedData>
      <MultiGeometry><Polygon><outerBoundaryIs><LinearRing><coordinates>-78.577660485,-0.289535327999943 -78.577930924,-0.289752686999975 -78.5782233309999,-0.289859000999968 -78.5785405079999,-0.290041705999954 -78.579043279,-0.290379814999937 -78.579470826,-0.290542590999962 -78.5795444729999,-0.29080567799997 -78.579641882,-0.291001797999968 -78.579729785,-0.29096831499993 -78.579838233,-0.290910724999947 -78.580278698,-0.291534959999979 -78.5809234829999,-0.292240564999929 -78.581072187,-0.292105756999945 -78.581534033,-0.292608493999978 -78.5817259949999,-0.29272233699993 -78.5822293429999,-0.292365174999929 -78.582683886,-0.292017011999974 -78.5826375569999,-0.291973961999929 -78.582762284,-0.291877094999961 -78.582231303,-0.291270800999939 -78.5824201729999,-0.291098595999927 -78.5823382089999,-0.291008906999934 -78.582523516,-0.290851049999958 -78.5818357319999,-0.290097666999941 -78.5819547569999,-0.289962053999943 -78.5823756949999,-0.289581366999926 -78.5858735859999,-0.287686344999941 -78.5860030649999,-0.28790996999993 -78.5873632139999,-0.287049450999973 -78.5884649119999,-0.286352445999967 -78.588608564,-0.286226878999969 -78.5879140549999,-0.285223178999956 -78.586369831,-0.285873738999953 -78.584785348,-0.287263246999942 -78.584084022,-0.287568609999937 -78.5830616059999,-0.287522860999957 -78.5823845199999,-0.287582658999952 -78.5821915189999,-0.287645403999932 -78.581737243,-0.287923932999945 -78.581685863,-0.288051583999959 -78.5807761849999,-0.288367065999978 -78.579785505,-0.288567976999957 -78.579398052,-0.288876970999979 -78.578894351,-0.289111865999928 -78.578392234,-0.289121235999971 -78.577636747,-0.289135476999945 -78.577660485,-0.289535327999943</coordinates></LinearRing></outerBoundaryIs></Polygon></MultiGeometry>
  </Placemark>
  <Placemark id="SectoresHidraulicos.5">
	<name>Juan Ilbay</name>
	<Style><LineStyle><color>ff0000ff</color></LineStyle><PolyStyle><fill>0</fill></PolyStyle></Style>
	<ExtendedData><SchemaData schemaUrl="#SectoresHidraulicos">
		<SimpleData name="id">ID_00004</SimpleData>
		<SimpleData name="descriptio">NombreSector: MIRADOR DE CHILLOGALLO
Shape.STArea(): 136521.335702
NombreSubsector: Mirador de Chillogallo Santa Clara 3
CodigoSector: 050116
CodigoSubsector: 05011604</SimpleData>
		<SimpleData name="timestamp">NaT</SimpleData>
		<SimpleData name="begin">NaT</SimpleData>
		<SimpleData name="end">NaT</SimpleData>
		<SimpleData name="tessellate">-1</SimpleData>
		<SimpleData name="extrude">0</SimpleData>
		<SimpleData name="visibility">-1</SimpleData>
	</SchemaData></ExtendedData>
      <MultiGeometry><Polygon><outerBoundaryIs><LinearRing><coordinates>-78.5809234829999,-0.292240564999929 -78.5805709099999,-0.292560188999971 -78.580729558,-0.292652287999942 -78.581024149,-0.29241789699995 -78.5812427179999,-0.292657066999936 -78.581903176,-0.293044520999956 -78.583114796,-0.292121307999935 -78.5841886219999,-0.291255498999931 -78.5825588559999,-0.289849179999976 -78.582739411,-0.289705675999926 -78.585751831,-0.288098418999937 -78.586177001,-0.288661998999942 -78.587505132,-0.288892455999928 -78.5882938779999,-0.289179454999953 -78.589096883,-0.289595606999967 -78.589538768,-0.289523852999935 -78.5897430799999,-0.289179443999956 -78.589833353,-0.288509764999958 -78.5897003109999,-0.288591083999961 -78.589543511,-0.288423662999946 -78.5892251619999,-0.288581517999944 -78.5887024949999,-0.28775877399994 -78.589130126,-0.287505248999935 -78.589115872,-0.28742871299994 -78.5884649119999,-0.286352445999967 -78.5873632139999,-0.287049450999973 -78.5860030649999,-0.28790996999993 -78.5858735859999,-0.287686344999941 -78.5823756949999,-0.289581366999926 -78.5819547569999,-0.289962053999943 -78.5818357319999,-0.290097666999941 -78.582523516,-0.290851049999958 -78.5823382089999,-0.291008906999934 -78.5824201729999,-0.291098595999927 -78.582231303,-0.291270800999939 -78.582762284,-0.291877094999961 -78.5826375569999,-0.291973961999929 -78.582683886,-0.292017011999974 -78.5822293429999,-0.292365174999929 -78.5817259949999,-0.29272233699993 -78.581534033,-0.292608493999978 -78.581072187,-0.292105756999945 -78.5809234829999,-0.292240564999929</coordinates></LinearRing></outerBoundaryIs></Polygon></MultiGeometry>
  </Placemark>
  <Placemark id="SectoresHidraulicos.6">
	<name>Juan Ilbay</name>
	<Style><LineStyle><color>ff0000ff</color></LineStyle><PolyStyle><fill>0</fill></PolyStyle></Style>
	<ExtendedData><SchemaData schemaUrl="#SectoresHidraulicos">
		<SimpleData name="id">ID_00005</SimpleData>
		<SimpleData name="descriptio">NombreSector: MIRADOR DE CHILLOGALLO
Shape.STArea(): 288472.925532
NombreSubsector: Mirador de Chillogallo San Francisco de Huarcay
CodigoSector: 050116
CodigoSubsector: 05011605</SimpleData>
		<SimpleData name="timestamp">NaT</SimpleData>
		<SimpleData name="begin">NaT</SimpleData>
		<SimpleData name="end">NaT</SimpleData>
		<SimpleData name="tessellate">-1</SimpleData>
		<SimpleData name="extrude">0</SimpleData>
		<SimpleData name="visibility">-1</SimpleData>
	</SchemaData></ExtendedData>
      <MultiGeometry><Polygon><outerBoundaryIs><LinearRing><coordinates>-78.5749013939999,-0.298185047999937 -78.5751955109999,-0.298784202999968 -78.575672735,-0.298475159999953 -78.5763023109999,-0.299204628999974 -78.5771904699999,-0.300056174999952 -78.57677216,-0.300466221999954 -78.577169119,-0.301216730999954 -78.5781082519999,-0.301177735999943 -78.578747246,-0.300524689999975 -78.5797154159999,-0.299569485999939 -78.5788297509999,-0.29867326599998 -78.579658659,-0.298253880999937 -78.5801985099999,-0.297446686999933 -78.5803172939999,-0.297111847999929 -78.579972804,-0.296083411999973 -78.5792157779999,-0.294544561999942 -78.5789752319999,-0.294030343999964 -78.578113281,-0.293308941999953 -78.577619206,-0.293720587999928 -78.577121564,-0.294051980999939 -78.5768229889999,-0.294250811999973 -78.576271912,-0.294891188999941 -78.576273261,-0.294892446999938 -78.5768717609999,-0.295436510999934 -78.5770366419999,-0.295625214999973 -78.576263936,-0.296251669999947 -78.5763598629999,-0.296393775999945 -78.5755697229999,-0.296882388999961 -78.575885778,-0.297385384999927 -78.5749013939999,-0.298185047999937</coordinates></LinearRing></outerBoundaryIs></Polygon></MultiGeometry>
  </Placemark>
  <Placemark id="SectoresHidraulicos.7">
	<name>Juan Ilbay</name>
	<Style><LineStyle><color>ff0000ff</color></LineStyle><PolyStyle><fill>0</fill></PolyStyle></Style>
	<ExtendedData><SchemaData schemaUrl="#SectoresHidraulicos">
		<SimpleData name="id">ID_00006</SimpleData>
		<SimpleData name="descriptio">NombreSector: CHILLOGALLO ALTO #1
Shape.STArea(): 458642.265969
NombreSubsector: Chillogallo Alto #1-Sub.1 (El Conde)
CodigoSector: 050106
CodigoSubsector: 05010601</SimpleData>
		<SimpleData name="timestamp">NaT</SimpleData>
		<SimpleData name="begin">NaT</SimpleData>
		<SimpleData name="end">NaT</SimpleData>
		<SimpleData name="tessellate">-1</SimpleData>
		<SimpleData name="extrude">0</SimpleData>
		<SimpleData name="visibility">-1</SimpleData>
	</SchemaData></ExtendedData>
      <MultiGeometry><Polygon><outerBoundaryIs><LinearRing><coordinates>-78.535175124,-0.30474599799993 -78.535175236,-0.304747901999974 -78.535195473,-0.305222589999971 -78.5349843939999,-0.305261366999957 -78.5349105069999,-0.305305183999962 -78.53496993,-0.305671736999955 -78.5347622899999,-0.305891266999936 -78.5347214669999,-0.305977469999959 -78.534740115,-0.306060079999952 -78.53475538,-0.306100267999966 -78.534677774,-0.306353714999943 -78.534665059,-0.306654409999965 -78.534707822,-0.306825416999971 -78.534727709,-0.307349357999954 -78.5347317119999,-0.307498274999943 -78.534729413,-0.307595503999949 -78.534723347,-0.307625893999955 -78.534708122,-0.307702181999957 -78.5347024759999,-0.30773045799998 -78.5346798099999,-0.307844050999961 -78.5346439429999,-0.307844021999927 -78.534625434,-0.307951597999931 -78.534618112,-0.308008571999949 -78.534599262,-0.308103738999932 -78.534555847,-0.308264835999978 -78.534555569,-0.308265867999978 -78.534663098,-0.308272614999964 -78.534665447,-0.30827275799993 -78.534667433,-0.308347092999952 -78.534672104,-0.308455749999951 -78.534678067,-0.30856433699995 -78.53468323,-0.308672959999967 -78.534689686,-0.308781518999979 -78.534697948,-0.308888275999948 -78.5347022079999,-0.309018447999961 -78.5347046489999,-0.309092902999964 -78.5344677309999,-0.309100816999944 -78.534471024,-0.309175209999978 -78.534474546,-0.309246783999924 -78.534501308,-0.309321 -78.5344646309999,-0.309424688999968 -78.53446891,-0.309644248999973 -78.534529732,-0.309840381999948 -78.534557294,-0.31019566599997 -78.534572499,-0.310651053999948 -78.534575215,-0.311035699999934 -78.534598267,-0.311329909999927 -78.534585807,-0.31164103499998 -78.534507532,-0.312139156999933 -78.534504082,-0.312379594999925 -78.5346238239999,-0.313558236999938 -78.534649142,-0.314053850999926 -78.5346470809999,-0.314184676999957 -78.534650784,-0.314201454999932 -78.5346677059999,-0.314278127999955 -78.5346703069999,-0.314681759999928 -78.534672523,-0.315025361999972 -78.534620269,-0.315280093999945 -78.534463499,-0.315543132999949 -78.5341087099999,-0.315892005999956 -78.534153546,-0.315941746999954 -78.534250944,-0.316047843999968 -78.534152214,-0.316101793999962 -78.5341848579999,-0.31633936399993 -78.534184957,-0.316340090999972 -78.534361582,-0.316376271999957 -78.5343640089999,-0.316376773999934 -78.534356583,-0.316470331999938 -78.534349451,-0.316560152999955 -78.534342145,-0.316652270999953 -78.534334853,-0.316744202999928 -78.5343276,-0.31683553299996 -78.5343203309999,-0.316927201999931 -78.5343202769999,-0.316927871999951 -78.5344972249999,-0.316965944999936 -78.534545491,-0.316939112999933 -78.5347568879999,-0.316967505999969 -78.534759316,-0.316967832999978 -78.5347570449999,-0.317005888999972 -78.534750676,-0.317094613999927 -78.534743495,-0.317185008999957 -78.534736058,-0.317275126999959 -78.5347284269999,-0.31736706199996 -78.534721589,-0.317457907999938 -78.534707855,-0.317542790999937 -78.534692499,-0.317635353999947 -78.534671934,-0.317723306999937 -78.534652089,-0.317806380999968 -78.534652809,-0.317844550999951 -78.534652829,-0.317845486999943 -78.5348097359999,-0.317862563999938 -78.534811045,-0.317862706999961 -78.534889275,-0.317939692999971 -78.534890397,-0.317940797999938 -78.53504536,-0.317952023999965 -78.535047627,-0.317952188999925 -78.535060199,-0.318073679999941 -78.5350698,-0.318166425999948 -78.535079681,-0.318261425999936 -78.535088479,-0.318346663999932 -78.5350977259999,-0.31843525499994 -78.5351073419999,-0.318527824999933 -78.535116226,-0.318614047999972 -78.535125755,-0.318705448999936 -78.535134752,-0.318792578999933 -78.5351349009999,-0.318794030999925 -78.535220866,-0.31878407399995 -78.5352230789999,-0.318783818999975 -78.5352312209999,-0.318855652999957 -78.5352440739999,-0.318969814999946 -78.5352468849999,-0.318997555999943 -78.535247034,-0.318999017999943 -78.535346951,-0.318987170999947 -78.535777227,-0.318944086999977 -78.535996658,-0.318927371999962 -78.5364212869999,-0.318883184999947 -78.536470047,-0.318874534999963 -78.5365247,-0.318647165999948 -78.536744961,-0.318053046999978 -78.5372777489999,-0.316999833999944 -78.538032022,-0.315752869999926 -78.5382522479999,-0.313154167999926 -78.538113347,-0.312738916999933 -78.538408416,-0.310461471999929 -78.537936295,-0.309827746999929 -78.537941785,-0.30953020499993 -78.53790701,-0.309379902999979 -78.5378229569999,-0.309016585999927 -78.537714716,-0.308793899999955 -78.536633195,-0.309110207999936 -78.536594909,-0.30850815499997 -78.536150177,-0.308385946999977 -78.5362205279999,-0.308079425999949 -78.535965758,-0.308034149999969 -78.5361342579999,-0.307270795999955 -78.536053357,-0.307122940999932 -78.5358096959999,-0.307072079999955 -78.5359268459999,-0.30668961899994 -78.536087605,-0.306565987999932 -78.53615925,-0.306214637999972 -78.5359297429999,-0.306145 -78.535989253,-0.305857203999949 -78.535872011,-0.305831412999964 -78.535828066,-0.305759393999949 -78.535755442,-0.305686633999926 -78.535754034,-0.305686497999943 -78.53569902,-0.305677875999947 -78.535697623,-0.305677857999967 -78.5355082849999,-0.305701644999942 -78.535406874,-0.305187665999938 -78.535385802,-0.304989446999968 -78.535379859,-0.304889991999971 -78.535380835,-0.304786232999959 -78.5353942089999,-0.304694654999935 -78.535391003,-0.304669752999928 -78.535390789,-0.304667864999942 -78.535175124,-0.30474599799993</coordinates></LinearRing></outerBoundaryIs></Polygon></MultiGeometry>
  </Placemark>
  <Placemark id="SectoresHidraulicos.8">
	<name>Juan Ilbay</name>
	<Style><LineStyle><color>ff0000ff</color></LineStyle><PolyStyle><fill>0</fill></PolyStyle></Style>
	<ExtendedData><SchemaData schemaUrl="#SectoresHidraulicos">
		<SimpleData name="id">ID_00007</SimpleData>
		<SimpleData name="descriptio">NombreSector: CHILLOGALLO ALTO #3
Shape.STArea(): 1997316.581155
NombreSubsector: Chillogallo Alto #3Giron
CodigoSector: 050115
CodigoSubsector: 05011501</SimpleData>
		<SimpleData name="timestamp">NaT</SimpleData>
		<SimpleData name="begin">NaT</SimpleData>
		<SimpleData name="end">NaT</SimpleData>
		<SimpleData name="tessellate">-1</SimpleData>
		<SimpleData name="extrude">0</SimpleData>
		<SimpleData name="visibility">-1</SimpleData>
	</SchemaData></ExtendedData>
      <MultiGeometry><Polygon><outerBoundaryIs><LinearRing><coordinates>-78.5654507799999,-0.279466583999977 -78.5652988529999,-0.279606803999968 -78.565366438,-0.279702309999948 -78.565474578,-0.279868143999977 -78.565503209,-0.279899993999948 -78.5654209479999,-0.279975162999961 -78.5653368819999,-0.280050862999928 -78.565392286,-0.280115228999932 -78.565441849,-0.280172790999927 -78.56555628,-0.28030649599998 -78.565601772,-0.280362168999943 -78.565566781,-0.280377578999946 -78.56536799,-0.280461618999936 -78.565264795,-0.28050439499998 -78.565167673,-0.280545640999946 -78.5649628039999,-0.280631199999959 -78.564865465,-0.280671022999968 -78.56489011,-0.280763695999951 -78.5648447579999,-0.280801850999978 -78.564809639,-0.280831771999942 -78.564817349,-0.280856734999929 -78.5648570549999,-0.280985466999937 -78.564762496,-0.281010076999962 -78.5647078659999,-0.28115216499998 -78.5645308049999,-0.281200129999945 -78.5645482689999,-0.281272481999963 -78.564561554,-0.281327447999956 -78.564583912,-0.281420038999954 -78.5646020249999,-0.281495037999946 -78.564613422,-0.281542259999981 -78.564639632,-0.281642323999961 -78.564670162,-0.281762488999959 -78.5647078069999,-0.281920602999946 -78.564724349,-0.281990045999976 -78.564731098,-0.281988456999955 -78.5648222629999,-0.281967 -78.564899041,-0.281948676999946 -78.5648994169999,-0.281950286999972 -78.5649223789999,-0.282049728999937 -78.564942563,-0.282129726999926 -78.564854269,-0.282213543999944 -78.5647156159999,-0.282348186999968 -78.5647117409999,-0.282351947999928 -78.564658799,-0.282290706999959 -78.5646016269999,-0.282232806999957 -78.564545773,-0.282174310999949 -78.5644899009999,-0.282115835999946 -78.564436762,-0.282061161999934 -78.564326643,-0.28194659299993 -78.564323243,-0.281943058999957 -78.5641934719999,-0.282066183999973 -78.564192071,-0.282067511999969 -78.564078735,-0.28204124399997 -78.5637880209999,-0.281738306999955 -78.563784504,-0.281734636999943 -78.563502453,-0.282021200999964 -78.563497924,-0.282025803999943 -78.563477851,-0.281990238999924 -78.563374873,-0.281876011999941 -78.563344555,-0.281844863999936 -78.563340983,-0.28184119399998 -78.563125525,-0.282063422999954 -78.5630910689999,-0.282262853999953 -78.563079122,-0.282305301999941 -78.563120566,-0.282354758999929 -78.5631381329999,-0.282377664999956 -78.563162397,-0.282422330999964 -78.56317194,-0.282450521999976 -78.5631780959999,-0.282475430999966 -78.563188967,-0.282512219999944 -78.563193306,-0.282560111999942 -78.563189854,-0.282591765999939 -78.5631848209999,-0.282653335999953 -78.5631505059999,-0.282671731999926 -78.563002196,-0.282751855999948 -78.562902688,-0.282812784999976 -78.5628715,-0.282833768999978 -78.562746901,-0.282917014999953 -78.562705132,-0.282945489999975 -78.562583118,-0.283028740999953 -78.562543229,-0.283055268999931 -78.5622506019999,-0.283259690999955 -78.562245902,-0.283262975999946 -78.562110198,-0.283079509999936 -78.56210773,-0.283076173999973 -78.56186583,-0.28324938399993 -78.5618611529999,-0.283252731999937 -78.5617404779999,-0.283088071999941 -78.5617380639999,-0.283084784999971 -78.5616420859999,-0.283151754999949 -78.561866863,-0.283497914999941 -78.561676873,-0.283634251999956 -78.5615300809999,-0.283740731999956 -78.56138794,-0.28384032799994 -78.561245164,-0.283946426999933 -78.561212187,-0.283970508999971 -78.5611639799999,-0.284009301999959 -78.5609452899999,-0.284187858999928 -78.560825859,-0.284285869999962 -78.560563493,-0.284500180999942 -78.560439472,-0.284600583999975 -78.5602790459999,-0.284715093999978 -78.5599845579999,-0.284936637999976 -78.5600024519999,-0.28496331599996 -78.5598489989999,-0.28507499799997 -78.560201191,-0.28561398599993 -78.559898436,-0.286393571999952 -78.559772003,-0.286763826999959 -78.559561495,-0.28719457099993 -78.559361483,-0.287678077999942 -78.559056346,-0.288395004999927 -78.559055415,-0.288397195999949 -78.5585927079999,-0.28823359699993 -78.5581299999999,-0.288069997999969 -78.5578804,-0.287931846999925 -78.557788704,-0.287737364999941 -78.557788165,-0.287736222999968 -78.557306319,-0.287819879999972 -78.5568244729999,-0.287903536999977 -78.557164734,-0.288714266999932 -78.557504996,-0.289524996999944 -78.557413126,-0.289557573999957 -78.5577378139999,-0.290310163999948 -78.558062502,-0.291062752999949 -78.55838719,-0.291815342999939 -78.558387295,-0.291817504999926 -78.557619512,-0.292093170999976 -78.556851729,-0.292368837999959 -78.556144508,-0.292977719999953 -78.5558710509999,-0.293582782999977 -78.5558513459999,-0.29383428999995 -78.556150643,-0.293900751999956 -78.55631656,-0.293460890999938 -78.557091043,-0.293069959999968 -78.557865525,-0.292679027999952 -78.5586400079999,-0.292288096999925 -78.558703093,-0.292444599999953 -78.5587935299999,-0.292642595999951 -78.558899013,-0.29291114199998 -78.558981143,-0.293127353999978 -78.559094196,-0.293447765999929 -78.559175916,-0.293764763999945 -78.559225323,-0.294047444999933 -78.559260692,-0.294352776999972 -78.5592641109999,-0.29495873999997 -78.5592621549999,-0.295355065999956 -78.559247074,-0.295879513999978 -78.5592285609999,-0.29652097099995 -78.5592220249999,-0.296885418999977 -78.559215098,-0.297163104999925 -78.559202509,-0.29736394899993 -78.559193615,-0.29750583699996 -78.559180038,-0.297722480999937 -78.5591670049999,-0.297930364999957 -78.559155828,-0.298186456999929 -78.559152007,-0.29828456499996 -78.559137055,-0.298543549999977 -78.559103191,-0.298841652999954 -78.5590570809999,-0.299247571999956 -78.5590468349999,-0.299370322999948 -78.559046672,-0.299413632999972 -78.559029493,-0.299469492999947 -78.559003591,-0.299553720999938 -78.558971532,-0.299657962999959 -78.5589303419999,-0.29979190399996 -78.558900846,-0.299893793999956 -78.558904495,-0.299982883999974 -78.558912565,-0.30015833799996 -78.5589140449999,-0.30021629099997 -78.558917319,-0.30027453799994 -78.558918262,-0.300337163999927 -78.558915747,-0.300403632999974 -78.558909646,-0.300432436999927 -78.5589000589999,-0.300482258999978 -78.558888102,-0.300544400999968 -78.5588773709999,-0.300600151999959 -78.558869778,-0.300658882999926 -78.55886106,-0.300750344999926 -78.5588522469999,-0.300842794999937 -78.558849285,-0.300873810999974 -78.5588543539999,-0.300917992999928 -78.5588669639999,-0.301027956999974 -78.558881836,-0.301157632999946 -78.558893912,-0.301262970999972 -78.558911469,-0.301390824999942 -78.558917751,-0.301431645999969 -78.55893764,-0.301561010999933 -78.5589598559999,-0.301705439999978 -78.558984589,-0.301907658999937 -78.559002575,-0.302043330999936 -78.5590083179999,-0.30209833999993 -78.559013175,-0.30221096799994 -78.559041795,-0.302573635999977 -78.55906372,-0.302856831999975 -78.559072488,-0.302971825999975 -78.559080686,-0.303004381999926 -78.559081627,-0.303056581999954 -78.5590843269999,-0.303173873999924 -78.559138778,-0.303650130999927 -78.559159829,-0.304002371999957 -78.559162445,-0.304029373999924 -78.5591659999999,-0.304060776999961 -78.55917313,-0.304060754999966 -78.5591824269999,-0.304060723999953 -78.55985228,-0.304058318999978 -78.5605221329999,-0.304055914999935 -78.5605292549999,-0.304055906999963 -78.5605314279999,-0.304055908999942 -78.5605385489999,-0.304056078999963 -78.560540718,-0.304056144999947 -78.560547833,-0.304056341999967 -78.5612259609999,-0.304080424999938 -78.5619040879999,-0.304104508999956 -78.561913476,-0.304104783999946 -78.561490028,-0.30332737699996 -78.561338325,-0.303193449999981 -78.561086197,-0.302993796999942 -78.560778796,-0.302631173999941 -78.5608895249999,-0.302548287999969 -78.5608494159999,-0.302496767999969 -78.561258707,-0.302267404999952 -78.561792703,-0.301968151999972 -78.561855651,-0.301932875999967 -78.561875507,-0.301921745999948 -78.561890729,-0.301913216999935 -78.562537466,-0.30155078699994 -78.562556748,-0.301457185999936 -78.5625573149999,-0.301456909999956 -78.5627970039999,-0.301316717999953 -78.562742167,-0.301156728999956 -78.562826388,-0.301110333999929 -78.562746825,-0.300972507999972 -78.562861808,-0.300903182999946 -78.562810224,-0.300808588999928 -78.562923483,-0.300742103999937 -78.5629241669999,-0.300741700999936 -78.5629276399999,-0.300739610999926 -78.562932825,-0.300742182999954 -78.5629880069999,-0.300769536999951 -78.56299182,-0.300771425999926 -78.56299298,-0.300772000999928 -78.563450738,-0.300510809999935 -78.563456139,-0.300507726999967 -78.563457784,-0.300506786999961 -78.563459539,-0.300509849999969 -78.5635530329999,-0.300669425999956 -78.563567672,-0.30069440699998 -78.563900982,-0.301263265999978 -78.564111713,-0.301622918999954 -78.564112267,-0.30162388399998 -78.564114042,-0.301626960999954 -78.5641210479999,-0.301622915999928 -78.5645453829999,-0.301376970999968 -78.564969718,-0.30113102699994 -78.565312804,-0.300934163999955 -78.565047707,-0.300474824999981 -78.56478261,-0.300015486999939 -78.5644045729999,-0.299344772999973 -78.564015634,-0.298656858999948 -78.563626696,-0.297968945999969 -78.5644414339999,-0.297508491999963 -78.5641358359999,-0.297013375999938 -78.564306172,-0.296955224999977 -78.5644165689999,-0.296912678999945 -78.564535564,-0.296843888999945 -78.564486325,-0.296754661999955 -78.564484151,-0.296750723999935 -78.564482486,-0.296747704999973 -78.5643733049999,-0.296808064999937 -78.5643662369999,-0.296811969999965 -78.5643608189999,-0.296814966999932 -78.564258658,-0.296635959999946 -78.564374825,-0.296563302999971 -78.5642666369999,-0.296365288999937 -78.564336667,-0.296245716999977 -78.5647252329999,-0.296023867999963 -78.565369392,-0.295656091999945 -78.566013551,-0.295288315999926 -78.5656512579999,-0.294621528999926 -78.565288966,-0.293954741999926 -78.5649266729999,-0.293287954999926 -78.5656511619999,-0.292881576999946 -78.566375652,-0.292475198999966 -78.566830304,-0.292211271999974 -78.567284956,-0.291947344999926 -78.5670497579999,-0.291280541999924 -78.567049943,-0.291279937999946 -78.5670501769999,-0.291279290999967 -78.5671224129999,-0.290975341999967 -78.567453626,-0.291036590999965 -78.567453912,-0.291035419999957 -78.567454282,-0.291033886999969 -78.5674659269999,-0.290985864999925 -78.56769681,-0.290429551999978 -78.5679276929999,-0.289873239999963 -78.5679340469999,-0.289875101999939 -78.5679423349999,-0.289877525999941 -78.568570676,-0.290061625999954 -78.568571209,-0.290059692999932 -78.568571907,-0.29005717299998 -78.568681939,-0.289659769999958 -78.5690443729999,-0.289855184999965 -78.569160236,-0.289713326999959 -78.568994757,-0.289599195999927 -78.568824481,-0.28940930899995 -78.5694418529999,-0.289031564999959 -78.5691891559999,-0.288586546999966 -78.56893646,-0.288141528999972 -78.5689123079999,-0.288085214999967 -78.56899407,-0.287576293999962 -78.5693539759999,-0.287542703999975 -78.569354559,-0.287542644999974 -78.5695987,-0.287500977999969 -78.569599266,-0.287500871999953 -78.569905359,-0.287413400999981 -78.570174111,-0.287279205999937 -78.570173326,-0.287278845999936 -78.5698890149999,-0.287155343999927 -78.569889385,-0.287154278999935 -78.57013568,-0.286578391999967 -78.570039475,-0.286275882999973 -78.570046184,-0.286249940999937 -78.5704601589999,-0.286023952999926 -78.5705277019999,-0.285927817999948 -78.570884144,-0.285722205999946 -78.570963631,-0.285645537999926 -78.570965826,-0.285650292999946 -78.5709686869999,-0.28565649899997 -78.5710591,-0.285852435999971 -78.5710639719999,-0.285847548999925 -78.571070326,-0.285841173999927 -78.571281735,-0.285629114999949 -78.57129456,-0.285594673999924 -78.571298766,-0.285602507999954 -78.57130426,-0.285612727999933 -78.5714171499999,-0.285822844999927 -78.571422216,-0.285819003999961 -78.5714288249999,-0.285814005999953 -78.571650582,-0.285646147999955 -78.571978902,-0.285384600999976 -78.5719283669999,-0.285324790999937 -78.5718694889999,-0.284966640999926 -78.571703551,-0.284500571999956 -78.572271338,-0.284185742999966 -78.572020153,-0.283667333999972 -78.572029464,-0.283600543999967 -78.57202964,-0.28359930299996 -78.572029774,-0.283598348999931 -78.571549529,-0.283661387999928 -78.571540907,-0.283662522999975 -78.5715342999999,-0.283663390999948 -78.5714287599999,-0.283487089999937 -78.5714265509999,-0.28348340499997 -78.571424861,-0.283480575999931 -78.5712608759999,-0.283565891999956 -78.571303093,-0.283648841999934 -78.57130389,-0.28365040999995 -78.571304501,-0.28365161499994 -78.5712000359999,-0.283635385999958 -78.571193815,-0.283634420999931 -78.5711890429999,-0.283633681999959 -78.5711451609999,-0.283647490999954 -78.571137469,-0.283649910999941 -78.571131575,-0.28365176799997 -78.571075498,-0.283567339999934 -78.571055507,-0.283580910999944 -78.570825585,-0.283162705999928 -78.570261532,-0.283461755999951 -78.5696758299999,-0.283503290999931 -78.568865483,-0.283609197999965 -78.56884593,-0.283596347999946 -78.568842536,-0.283584685999926 -78.568841915,-0.283582541999977 -78.568841006,-0.28357942599996 -78.568840559,-0.283577891999926 -78.5686766539999,-0.28301477499997 -78.5678974959999,-0.283099511999978 -78.567991794,-0.283687512999961 -78.567993553,-0.283698486999924 -78.567977919,-0.283719333999954 -78.5672461999999,-0.283794219999947 -78.566844314,-0.283845398999972 -78.5666861509999,-0.283711251999932 -78.566466082,-0.283996370999944 -78.5665710219999,-0.284331067999972 -78.5662675,-0.284328701999925 -78.566098091,-0.28403024499994 -78.5661263229999,-0.283760210999958 -78.566069854,-0.283658356999979 -78.566152614,-0.283498853999959 -78.565871267,-0.283157991999929 -78.565711645,-0.282907856999941 -78.565896865,-0.282795672999953 -78.5657978959999,-0.282645842999955 -78.566201092,-0.282226833999971 -78.5661555889999,-0.282060133999948 -78.5661548269999,-0.282057322999947 -78.56615468,-0.282056740999963 -78.566154382,-0.282055474999936 -78.566154125,-0.282048389999943 -78.5661545089999,-0.282046024999943 -78.5661547,-0.282045050999955 -78.566155284,-0.282042455999942 -78.566173751,-0.281960362999939 -78.566175097,-0.281954759999962 -78.5662005089999,-0.281840622999937 -78.566200796,-0.281839490999971 -78.566215045,-0.281790590999947 -78.566224333,-0.281758709999963 -78.566228193,-0.28174547499998 -78.566266271,-0.281597494999971 -78.5663236079999,-0.281374653999933 -78.5664494229999,-0.280880684999943 -78.566508942,-0.280634323999948 -78.5665427929999,-0.280506216999925 -78.56660269,-0.280279606999955 -78.5666150389999,-0.280205686999977 -78.566654977,-0.279966033999926 -78.566679376,-0.279734768999958 -78.5666729229999,-0.279699350999977 -78.566606969,-0.27933219199997 -78.566615386,-0.279313517999924 -78.566618615,-0.279311560999929 -78.566607666,-0.27926008399993 -78.566579065,-0.279270449999956 -78.566561104,-0.279276967999976 -78.566528276,-0.279288869999959 -78.5664741859999,-0.27930854899995 -78.566400575,-0.279352804999974 -78.566396076,-0.279345777999936 -78.56639534,-0.279346207999936 -78.5663939299999,-0.279347027999961 -78.5663559129999,-0.279369218999932 -78.566329922,-0.279347697999924 -78.566348034,-0.279294481999955 -78.5663487039999,-0.279292503999954 -78.5663511819999,-0.27928523099996 -78.566351707,-0.279283690999932 -78.566259228,-0.27915434099998 -78.566208838,-0.279083862999926 -78.5659829529999,-0.279227013999957 -78.5659782559999,-0.279229090999934 -78.565759167,-0.279323622999925 -78.565755308,-0.279325692999976 -78.56575401,-0.279326329999947 -78.565697741,-0.279351058999964 -78.5655418279999,-0.279443691999972 -78.565483049,-0.279478618999974 -78.565481237,-0.279479699999968 -78.565458739,-0.27947611299993 -78.5654581869999,-0.279475487999946 -78.565457835,-0.279475078999951 -78.56545347,-0.279469823999932 -78.5654507799999,-0.279466583999977</coordinates></LinearRing></outerBoundaryIs></Polygon></MultiGeometry>
  </Placemark>
</Folder>
</Document></kml>
